OBJECT_NAME,OBJECT_ID,EPOCH,MEAN_MOTION,ECCENTRICITY,INCLINATION,RA_OF_ASC_NODE,ARG_OF_PERICENTER,MEAN_ANOMALY,EPHEMERIS_TYPE,CLASSIFICATION_TYPE,NORAD_CAT_ID,ELEMENT_SET_NO,REV_AT_EPOCH,BSTAR,MEAN_MOTION_DOT,MEAN_MOTION_DDOT
JCSAT-3A,2006-033A,2026-07-13T05:31:05.626272,1.00277450,.000202,0.0121,340.5163,141.8792,19.4972,0,U,29272,999,4800,0,-.347E-5,0
KOREASAT 5 (MUGUNGWHA 5),2006-034A,2026-07-13T12:17:23.272224,1.00270509,.0001788,1.8507,82.6628,81.8425,64.2860,0,U,29349,999,4158,0,-.363E-5,0
DIRECTV 9S,2006-043A,2026-07-13T12:21:38.617920,1.00270971,.0004982,2.4863,80.5839,33.5801,261.4343,0,U,29494,999,5164,0,-.119E-5,0
OPTUS D1,2006-043B,2026-07-13T12:13:38.709984,1.00270136,.0003306,3.1001,79.3324,31.1774,156.2447,0,U,29495,999,7238,0,-.191E-5,0
BADR-4,2006-051A,2026-07-13T11:55:03.259200,1.00270270,.0004703,2.0703,80.8310,29.2687,34.4828,0,U,29526,999,5153,0,.15E-5,0
WILDBLUE-1,2006-054A,2026-07-13T12:29:38.799744,1.00271075,.0001248,2.8686,80.1518,37.4327,250.0130,0,U,29643,999,5405,0,-.56E-6,0
SKYNET 5A,2007-007B,2026-07-13T02:57:21.816288,1.00270137,.0003694,5.3640,73.4238,42.2508,314.8812,0,U,30794,999,7095,0,-.278E-5,0
ANIK F3,2007-009A,2026-07-13T12:16:36.329376,1.00270748,.0002417,1.2632,83.5323,27.0385,246.2433,0,U,31102,999,4682,0,-.6E-7,0
ASTRA 1L,2007-016A,2026-07-13T11:37:57.398304,1.00271336,.0005164,1.3873,81.3655,33.3921,326.5844,0,U,31306,999,4524,0,-.189E-5,0
GALAXY 17 (G-17),2007-016B,2026-07-13T07:59:38.926752,1.00270253,.0003549,3.0354,79.5702,34.5905,211.9325,0,U,31307,999,7006,0,-.212E-5,0
INTELSAT 11 (IS-11),2007-044B,2026-07-13T06:40:18.768000,0.99051585,.0004116,3.6309,78.3524,100.7185,223.1796,0,U,32253,999,6870,0,-.118E-5,0
WGS F1 (USA 195),2007-046A,2026-07-13T11:33:05.362848,1.00269562,.0000431,0.0152,66.1958,163.8151,192.1169,0,U,32258,999,5259,0,-.271E-5,0
SKYNET 5B,2007-056B,2026-07-13T07:51:38.725920,1.00273791,.0003729,5.3162,73.1915,40.7943,320.2204,0,U,32294,999,6846,0,.132E-5,0
ASTRA 4A,2007-057A,2026-07-13T08:21:11.564064,1.00270695,.0002241,0.0450,283.3276,195.2874,302.6980,0,U,32299,999,5190,0,.29E-6,0
HORIZONS-2,2007-063B,2026-07-13T11:24:06.225120,1.00269706,.0003522,2.6675,80.3028,19.1831,289.0858,0,U,32388,999,6807,0,-.259E-5,0
THURAYA-3,2008-001A,2026-07-13T03:30:01.781280,1.00271265,.00020866,6.0320,35.8179,76.6770,294.7294,0,U,32404,999,6775,0,.3E-7,0
THOR 5,2008-006A,2026-07-13T08:19:41.708064,1.00270867,.0002273,0.0534,235.3925,245.8359,294.1590,0,U,32487,999,6757,0,-.12E-6,0
AMC-14,2008-011A,2026-07-13T00:32:21.901344,1.00420278,.00393049,24.0400,20.2077,8.4286,347.9620,0,U,32708,999,6842,0,-.176E-5,0
DIRECTV 11,2008-013A,2026-07-13T09:46:19.303104,1.00272539,.0000124,0.0114,268.1640,271.7931,158.7216,0,U,32729,999,4585,0,-.129E-5,0
ICO G1,2008-016A,2026-07-13T12:21:38.617920,1.00269278,.0002414,5.5301,36.0555,63.7375,284.1531,0,U,32763,999,6680,0,-.179E-5,0
VINASAT-1,2008-018A,2026-07-13T12:22:52.743936,1.00270032,.0001405,0.0324,296.3012,196.6072,116.1407,0,U,32767,999,6685,0,-.332E-5,0
STAR ONE C2,2008-018B,2026-07-13T11:26:35.984832,1.00271405,.0002674,1.3051,82.2141,46.4651,269.3196,0,U,32768,999,6691,0,-.281E-5,0
AMOS-3,2008-022A,2026-07-13T12:02:02.586912,1.00487622,.0002985,0.5208,85.8300,85.0291,359.9625,0,U,32794,999,8260,0,.12E-6,0
GALAXY 18 (G-18),2008-024A,2026-07-13T12:17:30.318144,1.00270959,.0002807,0.0180,40.4081,85.1682,227.1816,0,U,32951,999,4611,0,.21E-6,0
ZHONGXING-9,2008-028A,2026-07-13T12:11:31.334784,1.00269848,.0003265,0.8327,85.0001,23.2830,98.3484,0,U,33051,999,6630,0,-.253E-5,0
SKYNET 5C,2008-030A,2026-07-13T09:57:25.912800,1.00272337,.0004038,3.8535,76.7282,45.0874,301.0284,0,U,33055,999,6621,0,-.147E-5,0
TURKSAT 3A,2008-030B,2026-07-13T11:57:10.554048,1.00269331,.0004891,0.0303,70.8410,22.6280,59.1801,0,U,33056,999,5262,0,.143E-5,0
ECHOSTAR 11,2008-035A,2026-07-13T12:09:32.711040,1.00270611,.000218,1.0709,83.8745,17.5272,262.5632,0,U,33207,999,5147,0,-.63E-6,0
SUPERBIRD-C2,2008-038A,2026-07-13T12:24:00.135936,1.00269677,.000613,2.4265,80.9360,39.5651,132.8867,0,U,33274,999,10599,0,-.313E-5,0
INMARSAT 4-F3,2008-039A,2026-07-13T10:00:33.105312,1.00272527,.0002806,4.3147,31.6906,83.9617,227.7818,0,U,33278,999,4680,0,-.146E-5,0
NIMIQ 4,2008-044A,2026-07-13T12:13:38.932032,1.00268120,.0001925,0.0399,70.6682,43.2428,278.9179,0,U,33373,999,6524,0,0,0
GALAXY 19 (G-19),2008-045A,2026-07-13T12:02:32.851968,1.00272604,.000228,0.0623,250.4882,234.0938,250.4324,0,U,33376,999,6516,0,-.143E-5,0
